[{"OBJECT_NAME":"FENGYUN 3B","OBJECT_ID":"2010-059A","EPOCH":"2026-03-10T00:20:44.307744","MEAN_MOTION":14.14816293,"ECCENTRICITY":0.00231137,"INCLINATION":98.9763,"RA_OF_ASC_NODE":114.55,"ARG_OF_PERICENTER":107.0698,"MEAN_ANOMALY":316.1301,"EPHEMERIS_TYPE":0,"CLASSIFICATION_TYPE":"U","NORAD_CAT_ID":37214,"ELEMENT_SET_NO":999,"REV_AT_EPOCH":79340,"BSTAR":-0.00015312798,"MEAN_MOTION_DOT":-3.41e-6,"MEAN_MOTION_DDOT":0},{"OBJECT_NAME":"INTERCOSMOS 22","OBJECT_ID":"1981-075A","EPOCH":"2026-03-09T17:48:13.070016","MEAN_MOTION":14.18959176,"ECCENTRICITY":0.00634964,"INCLINATION":81.2174,"RA_OF_ASC_NODE":305.6915,"ARG_OF_PERICENTER":133.9046,"MEAN_ANOMALY":226.7398,"EPHEMERIS_TYPE":0,"CLASSIFICATION_TYPE":"U","NORAD_CAT_ID":12645,"ELEMENT_SET_NO":999,"REV_AT_EPOCH":30594,"BSTAR":7.4470687e-5,"MEAN_MOTION_DOT":1.72e-6,"MEAN_MOTION_DDOT":0}]
